ORBCOMM FM37 [-]        
1 33064U 08031E   23225.62847699  .00001364  00000+0  23111-3 0  9997
2 33064  48.4418 292.5098 0005957   7.4696 112.2008 14.74919891814796
ORBCOMM FM40 [-]        
1 33065U 08031F   23225.70718275  .00001708  00000+0  27557-3 0  9994
2 33065  48.4439 283.7782 0007261  16.0550 138.2536 14.75907457814933
VESSELSAT 1 [-]         
1 37840U 11058C   23226.09170624  .00000379  00000+0  62872-4 0  9998
2 37840  19.9599 205.7226 0013662 345.2577  14.7428 14.11050736611340
ORBCOMM FM109 [+]       
1 40086U 14040A   23225.48753731  .00000791  00000+0  21592-3 0  9997
2 40086  47.0050 311.8170 0001321 141.1556 218.9423 14.55935487482944
ORBCOMM FM107 [+]       
1 40087U 14040B   23225.65821597  .00000968  00000+0  25637-3 0  9993
2 40087  47.0065 311.9283 0000609  27.9853 332.1064 14.55829138482963
ORBCOMM FM106 [-]       
1 40088U 14040C   23225.29013661  .00001107  00000+0  23343-3 0  9997
2 40088  47.0605 186.4342 0017966 186.0155 174.0521 14.65885563484701
ORBCOMM FM111 [-]       
1 40089U 14040D   23226.05168507  .00001560  00000+0  23052-3 0  9993
2 40089  47.0056 114.7856 0033923 225.6112 134.2003 14.79773601490333
ORBCOMM FM104 [-]       
1 40090U 14040E   23226.04569010  .00000629  00000+0  18544-3 0  9993
2 40090  47.0074 336.0681 0016844  10.8639 349.2606 14.54404794482662
